0 KOMPSAT
1 26032U 99070A   13282.49543429  .00000517  00000-0  10041-3 0  4621
2 26032 097.7519 109.9688 0003468 265.8150 094.2681 14.66934769738308
0 KOMPSAT
1 26032U 99070A   13282.83648648  .00000573  00000-0  11046-3 0  4637
2 26032 097.7519 110.2914 0003460 263.7316 096.3513 14.66935561738351
0 KOMPSAT
1 26032U 99070A   13283.17753860  .00000650  00000-0  12416-3 0  4647
2 26032 097.7520 110.6141 0003433 262.1474 097.9346 14.66936355738406
0 KOMPSAT
1 26032U 99070A   13283.31395949  .00000771  00000-0  14571-3 0  4652
2 26032 097.7520 110.7431 0003450 262.2785 097.8045 14.66937106738426
0 KOMPSAT
1 26032U 99070A   13283.65501127  .00000801  00000-0  15117-3 0  4657
2 26032 097.7521 111.0657 0003476 261.1491 098.9327 14.66937861738479
0 KOMPSAT
1 26032U 99070A   13283.79143199  .00000874  00000-0  16424-3 0  4666
2 26032 097.7521 111.1949 0003464 260.3724 099.7104 14.66938474738496
0 KOMPSAT
1 26032U 99070A   13284.13248365  .00000833  00000-0  15691-3 0  4677
2 26032 097.7523 111.5177 0003445 258.6056 101.4740 14.66938701738548
0 KOMPSAT
1 26032U 99070A   13284.47353573  .00000952  00000-0  17815-3 0  4685
2 26032 097.7523 111.8404 0003498 256.2060 103.8777 14.66939895738597
0 KOMPSAT
1 26032U 99070A   13285.49669024  .00000836  00000-0  15739-3 0  4717
2 26032 097.7524 112.8087 0003548 252.5794 107.5033 14.66941240738745
0 KOMPSAT
1 26032U 99070A   13285.83774133  .00000816  00000-0  15387-3 0  4721
2 26032 097.7524 113.1313 0003543 251.7887 108.2934 14.66941815738791
0 KOMPSAT
1 26032U 99070A   13286.17879266  .00000700  00000-0  13302-3 0  4730
2 26032 097.7524 113.4537 0003555 249.5561 110.5245 14.66941676738841
0 KOMPSAT
1 26032U 99070A   13286.51984411  .00000674  00000-0  12837-3 0  4740
2 26032 097.7523 113.7763 0003557 248.3684 111.7141 14.66942137738895
0 KOMPSAT
1 26032U 99070A   13286.79268482  .00000708  00000-0  13449-3 0  4763
2 26032 097.7525 114.0343 0003554 247.2879 112.7952 14.66942771738936
0 KOMPSAT
1 26032U 99070A   13286.79268484  .00000703  00000-0  13360-3 0  4751
2 26032 097.7525 114.0342 0003550 247.4089 112.6742 14.66942745738933
0 KOMPSAT
1 26032U 99070A   13287.13373575  .00000659  00000-0  12576-3 0  4778
2 26032 097.7525 114.3570 0003545 245.8860 114.1958 14.66942937738986
0 KOMPSAT
1 26032U 99070A   13287.47478711  .00000722  00000-0  13698-3 0  4781
2 26032 097.7526 114.6796 0003589 244.6969 115.3887 14.66943730739038
0 KOMPSAT
1 26032U 99070A   13287.81583732  .00000720  00000-0  13663-3 0  4790
2 26032 097.7526 115.0023 0003605 242.6339 117.4504 14.66944313739086
0 KOMPSAT
1 26032U 99070A   13288.15688756  .00000665  00000-0  12673-3 0  4800
2 26032 097.7525 115.3248 0003602 240.4557 119.6262 14.66944517739139
0 KOMPSAT
1 26032U 99070A   13288.49793827  .00000793  00000-0  14972-3 0  4810
2 26032 097.7521 115.6474 0003656 238.9495 121.1379 14.66945822739183
0 KOMPSAT
1 26032U 99070A   13288.83898786  .00000831  00000-0  15650-3 0  4826
2 26032 097.7519 115.9698 0003665 237.8610 122.2247 14.66946668739239
0 KOMPSAT
1 26032U 99070A   13289.18003751  .00000888  00000-0  16670-3 0  4831
2 26032 097.7520 116.2923 0003636 235.8951 124.1894 14.66947463739288
0 KOMPSAT
1 26032U 99070A   13289.52108752  .00000976  00000-0  18237-3 0  4846
2 26032 097.7516 116.6150 0003662 234.2789 125.8088 14.66948565739333
0 KOMPSAT
1 26032U 99070A   13289.79392680  .00001032  00000-0  19236-3 0  4855
2 26032 097.7516 116.8732 0003668 233.0907 126.9969 14.66949457739371
0 KOMPSAT
1 26032U 99070A   13290.13497610  .00000976  00000-0  18235-3 0  4869
2 26032 097.7516 117.1956 0003660 231.4935 128.5918 14.66949761739424
0 KOMPSAT
1 26032U 99070A   13290.33960619  .00001037  00000-0  19325-3 0  4876
2 26032 097.7514 117.3891 0003712 229.4972 130.5921 14.66950398739456
0 KOMPSAT
1 26032U 99070A   13290.68065472  .00001047  00000-0  19509-3 0  4883
2 26032 097.7513 117.7117 0003792 227.5602 132.5284 14.66951319739501
0 KOMPSAT
1 26032U 99070A   13290.81707432  .00001034  00000-0  19276-3 0  4895
2 26032 097.7513 117.8408 0003795 226.9553 133.1336 14.66951586739529
0 KOMPSAT
1 26032U 99070A   13291.22633304  .00001034  00000-0  19276-3 0  4909
2 26032 097.7513 118.2279 0003813 225.5504 134.5386 14.66952379739589
0 KOMPSAT
1 26032U 99070A   13291.56738173  .00001077  00000-0  20044-3 0  4919
2 26032 097.7513 118.5504 0003833 224.2765 135.8145 14.66953416739636
0 KOMPSAT
1 26032U 99070A   13291.84022040  .00001051  00000-0  19569-3 0  4922
2 26032 097.7512 118.8088 0003819 223.2972 136.7937 14.66953968739673
0 KOMPSAT
1 26032U 99070A   13292.18126885  .00001023  00000-0  19080-3 0  4930
2 26032 097.7514 119.1315 0003837 221.8992 138.1919 14.66954514739728
0 KOMPSAT
1 26032U 99070A   13292.52231715  .00001029  00000-0  19189-3 0  4944
2 26032 097.7511 119.4545 0003820 221.0029 139.0888 14.66955264739771
0 KOMPSAT
1 26032U 99070A   13292.86336553  .00000974  00000-0  18196-3 0  4953
2 26032 097.7508 119.7769 0003849 219.3690 140.7236 14.66955664739829
0 KOMPSAT
1 26032U 99070A   13293.20441374  .00000905  00000-0  16963-3 0  4965
2 26032 097.7509 120.0995 0003827 218.7664 141.3239 14.66955763739871
0 KOMPSAT
1 26032U 99070A   13293.54546207  .00000908  00000-0  17025-3 0  4977
2 26032 097.7510 120.4221 0003873 217.6256 142.4689 14.66956565739923
0 KOMPSAT
1 26032U 99070A   13293.88650977  .00000838  00000-0  15764-3 0  4985
2 26032 097.7510 120.7450 0003894 216.1914 143.9026 14.66956896739971
0 KOMPSAT
1 26032U 99070A   13294.22755777  .00000752  00000-0  14239-3 0  4990
2 26032 097.7509 121.0672 0003920 215.0156 145.0772 14.66956886740023
0 KOMPSAT
1 26032U 99070A   13294.56860541  .00000799  00000-0  15066-3 0  5006
2 26032 097.7508 121.3900 0003945 214.3313 145.7646 14.66957890740071
0 KOMPSAT
1 26032U 99070A   13294.84144321  .00000782  00000-0  14768-3 0  5019
2 26032 097.7507 121.6482 0003957 213.1006 146.9958 14.66958387740113
0 KOMPSAT
1 26032U 99070A   13295.18249065  .00000749  00000-0  14185-3 0  5025
2 26032 097.7510 121.9709 0003980 211.3881 148.7080 14.66958660740164
0 KOMPSAT
1 26032U 99070A   13295.52353793  .00000874  00000-0  16417-3 0  5037
2 26032 097.7508 122.2939 0003971 210.7676 149.3313 14.66959881740213
0 KOMPSAT
1 26032U 99070A   13295.86458459  .00000937  00000-0  17528-3 0  5044
2 26032 097.7508 122.6164 0003991 209.5967 150.5022 14.66960829740268
0 KOMPSAT
1 26032U 99070A   13296.20563147  .00000786  00000-0  14835-3 0  5055
2 26032 097.7510 122.9392 0003981 207.8183 152.2767 14.66960479740319
